{
  "type": "FeatureCollection",
  "features": [
    {
      "type": "Feature",
      "properties": {
        "norad_id": 66684,
        "name": "TRANSPORTER-15U",
        "group": "last-30-days",
        "lat": 71.67056327754322,
        "lon": 49.98593732932225,
        "alt_km": 509.3831100014768,
        "timestamp": "2025-12-27T17:24:56.104790+00:00",
        "meta_object_name": "TRANSPORTER-15U",
        "meta_object_id": "2025-276U",
        "meta_epoch": "2025-12-27T10:45:48.233952",
        "meta_mean_motion": 15.17436154,
        "meta_eccentricity": 0.0004718,
        "meta_inclination": 97.4467,
        "meta_ra_of_asc_node": 72.9678,
        "meta_arg_of_pericenter": 220.4165,
        "meta_mean_anomaly": 139.6719,
        "meta_ephemeris_type": 0,
        "meta_classification_type": "U",
        "meta_norad_cat_id": 66684,
        "meta_element_set_no": 999,
        "meta_rev_at_epoch": 435,
        "meta_bstar": 0.00066755,
        "meta_mean_motion_dot": 0.00013306,
        "meta_mean_motion_ddot": 0,
        "tle_line1": "1 66684U 25276U   25361.44847493  .00013306  00000+0  66755-3 0  9996",
        "tle_line2": "2 66684  97.4467  72.9678 0004718 220.4165 139.6719 15.17436154  4353"
      },
      "geometry": {
        "type": "Point",
        "coordinates": [
          49.98593732932225,
          71.67056327754322
        ]
      }
    },
    {
      "type": "Feature",
      "properties": {
        "norad_id": 66685,
        "name": "TRANSPORTER-15V",
        "group": "last-30-days",
        "lat": 76.55906674641564,
        "lon": -73.59336704157259,
        "alt_km": 477.15854787909393,
        "timestamp": "2025-12-27T17:24:56.104802+00:00",
        "meta_object_name": "TRANSPORTER-15V",
        "meta_object_id": "2025-276V",
        "meta_epoch": "2025-12-27T02:47:35.884320",
        "meta_mean_motion": 15.21953501,
        "meta_eccentricity": 0.00085593,
        "meta_inclination": 97.4444,
        "meta_ra_of_asc_node": 72.6316,
        "meta_arg_of_pericenter": 36.5472,
        "meta_mean_anomaly": 323.6347,
        "meta_ephemeris_type": 0,
        "meta_classification_type": "U",
        "meta_norad_cat_id": 66685,
        "meta_element_set_no": 999,
        "meta_rev_at_epoch": 430,
        "meta_bstar": 0.15371794,
        "meta_mean_motion_dot": 0.03971994,
        "meta_mean_motion_ddot": 0,
        "tle_line1": "1 66685U 25276V   25361.11638755  .03971994  00000+0  15372+0 0  9994",
        "tle_line2": "2 66685  97.4444  72.6316 0008559  36.5472 323.6347 15.21953501  4301"
      },
      "geometry": {
        "type": "Point",
        "coordinates": [
          -73.59336704157259,
          76.55906674641564
        ]
      }
    },
    {
      "type": "Feature",
      "properties": {
        "norad_id": 66686,
        "name": "TRANSPORTER-15W",
        "group": "last-30-days",
        "lat": 53.88853175719429,
        "lon": 62.899712005553326,
        "alt_km": 512.5931946003784,
        "timestamp": "2025-12-27T17:24:56.104813+00:00",
        "meta_object_name": "TRANSPORTER-15W",
        "meta_object_id": "2025-276W",
        "meta_epoch": "2025-12-27T10:50:37.356000",
        "meta_mean_motion": 15.1707078,
        "meta_eccentricity": 0.0004389,
        "meta_inclination": 97.4446,
        "meta_ra_of_asc_node": 72.9563,
        "meta_arg_of_pericenter": 222.4696,
        "meta_mean_anomaly": 137.6198,
        "meta_ephemeris_type": 0,
        "meta_classification_type": "U",
        "meta_norad_cat_id": 66686,
        "meta_element_set_no": 999,
        "meta_rev_at_epoch": 435,
        "meta_bstar": 0.00040235,
        "meta_mean_motion_dot": 7.904e-05,
        "meta_mean_motion_ddot": 0,
        "tle_line1": "1 66686U 25276W   25361.45182125  .00007904  00000+0  40235-3 0  9995",
        "tle_line2": "2 66686  97.4446  72.9563 0004389 222.4696 137.6198 15.17070780  4358"
      },
      "geometry": {
        "type": "Point",
        "coordinates": [
          62.899712005553326,
          53.88853175719429
        ]
      }
    },
    {
      "type": "Feature",
      "properties": {
        "norad_id": 66687,
        "name": "TRANSPORTER-15X",
        "group": "last-30-days",
        "lat": 20.27293819719883,
        "lon": 70.41906563704626,
        "alt_km": 510.2401401264269,
        "timestamp": "2025-12-27T17:24:56.104828+00:00",
        "meta_object_name": "TRANSPORTER-15X",
        "meta_object_id": "2025-276X",
        "meta_epoch": "2025-12-27T10:59:34.058976",
        "meta_mean_motion": 15.16825305,
        "meta_eccentricity": 0.000806,
        "meta_inclination": 97.4384,
        "meta_ra_of_asc_node": 72.9226,
        "meta_arg_of_pericenter": 39.3211,
        "meta_mean_anomaly": 320.8606,
        "meta_ephemeris_type": 0,
        "meta_classification_type": "U",
        "meta_norad_cat_id": 66687,
        "meta_element_set_no": 999,
        "meta_rev_at_epoch": 435,
        "meta_bstar": 0.00067098,
        "meta_mean_motion_dot": 0.0001315,
        "meta_mean_motion_ddot": 0,
        "tle_line1": "1 66687U 25276X   25361.45803309  .00013150  00000+0  67098-3 0  9996",
        "tle_line2": "2 66687  97.4384  72.9226 0008060  39.3211 320.8606 15.16825305  4354"
      },
      "geometry": {
        "type": "Point",
        "coordinates": [
          70.41906563704626,
          20.27293819719883
        ]
      }
    },
    {
      "type": "Feature",
      "properties": {
        "norad_id": 66688,
        "name": "TRANSPORTER-15Y",
        "group": "last-30-days",
        "lat": 59.9276441436484,
        "lon": 60.17278181753336,
        "alt_km": 511.26634870346425,
        "timestamp": "2025-12-27T17:24:56.104841+00:00",
        "meta_object_name": "TRANSPORTER-15Y",
        "meta_object_id": "2025-276Y",
        "meta_epoch": "2025-12-27T10:49:00.290784",
        "meta_mean_motion": 15.17145158,
        "meta_eccentricity": 0.0003877,
        "meta_inclination": 97.4424,
        "meta_ra_of_asc_node": 72.9501,
        "meta_arg_of_pericenter": 227.0791,
        "meta_mean_anomaly": 133.0118,
        "meta_ephemeris_type": 0,
        "meta_classification_type": "U",
        "meta_norad_cat_id": 66688,
        "meta_element_set_no": 999,
        "meta_rev_at_epoch": 435,
        "meta_bstar": 0.00047738,
        "meta_mean_motion_dot": 9.412e-05,
        "meta_mean_motion_ddot": 0,
        "tle_line1": "1 66688U 25276Y   25361.45069781  .00009412  00000+0  47738-3 0  9990",
        "tle_line2": "2 66688  97.4424  72.9501 0003877 227.0791 133.0118 15.17145158  4350"
      },
      "geometry": {
        "type": "Point",
        "coordinates": [
          60.17278181753336,
          59.9276441436484
        ]
      }
    },
    {
      "type": "Feature",
      "properties": {
        "norad_id": 66689,
        "name": "TRANSPORTER-15Z",
        "group": "last-30-days",
        "lat": 78.31615389336723,
        "lon": 34.029043648410266,
        "alt_km": 507.73791571892616,
        "timestamp": "2025-12-27T17:24:56.104851+00:00",
        "meta_object_name": "TRANSPORTER-15Z",
        "meta_object_id": "2025-276Z",
        "meta_epoch": "2025-12-27T10:43:43.159584",
        "meta_mean_motion": 15.17241488,
        "meta_eccentricity": 0.0001502,
        "meta_inclination": 97.4405,
        "meta_ra_of_asc_node": 72.9504,
        "meta_arg_of_pericenter": 229.3208,
        "meta_mean_anomaly": 130.7895,
        "meta_ephemeris_type": 0,
        "meta_classification_type": "U",
        "meta_norad_cat_id": 66689,
        "meta_element_set_no": 999,
        "meta_rev_at_epoch": 435,
        "meta_bstar": 0.00050602,
        "meta_mean_motion_dot": 0.00010008,
        "meta_mean_motion_ddot": 0,
        "tle_line1": "1 66689U 25276Z   25361.44702731  .00010008  00000+0  50602-3 0  9996",
        "tle_line2": "2 66689  97.4405  72.9504 0001502 229.3208 130.7895 15.17241488  4353"
      },
      "geometry": {
        "type": "Point",
        "coordinates": [
          34.029043648410266,
          78.31615389336723
        ]
      }
    },
    {
      "type": "Feature",
      "properties": {
        "norad_id": 66690,
        "name": "TRANSPORTER-15AA",
        "group": "last-30-days",
        "lat": 59.191112699270455,
        "lon": 60.549955791403875,
        "alt_km": 511.3499105758301,
        "timestamp": "2025-12-27T17:24:56.104861+00:00",
        "meta_object_name": "TRANSPORTER-15AA",
        "meta_object_id": "2025-276AA",
        "meta_epoch": "2025-12-27T10:49:11.953056",
        "meta_mean_motion": 15.17119001,
        "meta_eccentricity": 0.0003773,
        "meta_inclination": 97.4387,
        "meta_ra_of_asc_node": 72.9363,
        "meta_arg_of_pericenter": 225.4118,
        "meta_mean_anomaly": 134.6807,
        "meta_ephemeris_type": 0,
        "meta_classification_type": "U",
        "meta_norad_cat_id": 66690,
        "meta_element_set_no": 999,
        "meta_rev_at_epoch": 435,
        "meta_bstar": 0.00048635,
        "meta_mean_motion_dot": 9.583e-05,
        "meta_mean_motion_ddot": 0,
        "tle_line1": "1 66690U 25276AA  25361.45083279  .00009583  00000+0  48635-3 0  9997",
        "tle_line2": "2 66690  97.4387  72.9363 0003773 225.4118 134.6807 15.17119001  4357"
      },
      "geometry": {
        "type": "Point",
        "coordinates": [
          60.549955791403875,
          59.191112699270455
        ]
      }
    }
  ]
}